GLOBALSTAR M035 [-]     
1 25851U 99037A   24036.47955109 -.00000068  00000+0 -17762-3 0  9995
2 25851  51.9952  84.8863 0013557 252.8690 216.1282 11.04528409 41263
GLOBALSTAR M032 [-]     
1 25852U 99037B   24036.44068058 -.00000058  00000+0  27643-3 0  9998
2 25852  51.9969 304.5203 0010168  49.1446 311.0234 11.19050625 79060
GLOBALSTAR M030 [-]     
1 25854U 99037D   24036.24696870 -.00000047  00000+0  59840-3 0  9999
2 25854  51.9915 359.8658 0003621 234.9202 125.1276 11.55087994 92503
GLOBALSTAR M048 [-]     
1 25872U 99041A   24036.36597069 -.00000063  00000+0  20105-3 0  9997
2 25872  51.9370  77.5947 0013079  45.0835 327.6788 11.33842965 68518
GLOBALSTAR M026 [-]     
1 25873U 99041B   24036.52854009 -.00000057  00000+0  25982-3 0  9997
2 25873  51.9969 207.9809 0002061 123.1486 270.2723 11.06834320 93389
